[{"OBJECT_NAME":"STARLINK-3366","OBJECT_ID":"2022-005A","EPOCH":"2026-03-09T20:55:41.209536","MEAN_MOTION":15.08843448,"ECCENTRICITY":0.00010805,"INCLINATION":53.2165,"RA_OF_ASC_NODE":288.3062,"ARG_OF_PERICENTER":86.7312,"MEAN_ANOMALY":273.3804,"EPHEMERIS_TYPE":0,"CLASSIFICATION_TYPE":"U","NORAD_CAT_ID":51104,"ELEMENT_SET_NO":999,"REV_AT_EPOCH":22890,"BSTAR":7.2900776e-5,"MEAN_MOTION_DOT":8.73e-6,"MEAN_MOTION_DDOT":0},{"OBJECT_NAME":"LEMUR-2-AHMED-ASRAR","OBJECT_ID":"2024-149DN","EPOCH":"2026-03-09T17:35:01.338432","MEAN_MOTION":15.10376432,"ECCENTRICITY":0.00016334,"INCLINATION":97.7021,"RA_OF_ASC_NODE":152.9847,"ARG_OF_PERICENTER":18.5035,"MEAN_ANOMALY":341.6253,"EPHEMERIS_TYPE":0,"CLASSIFICATION_TYPE":"U","NORAD_CAT_ID":60576,"ELEMENT_SET_NO":999,"REV_AT_EPOCH":8554,"BSTAR":0.0007977347,"MEAN_MOTION_DOT":0.00013045,"MEAN_MOTION_DDOT":0}]
